{"type": "FeatureCollection", "features": [ {"type": "Feature", "properties": {"norad_id": 34833, "name": "IRIDIUM 33 DEB", "group": "iridium-33-debris", "lat": 2.566362001046674, "lon": 55.10338291388061, "alt_km": 729.445843126834, "timestamp": "2025-12-03T13:52:09.951618+00:00", "meta": {"OBJECT_NAME": "IRIDIUM 33 DEB", "OBJECT_ID": "1997-051MH", "EPOCH": "2025-12-02T23:15:35.069760", "MEAN_MOTION": 14.52273941, "ECCENTRICITY": 0.00215243, "INCLINATION": 86.3939, "RA_OF_ASC_NODE": 55.2036, "ARG_OF_PERICENTER": 128.6325, "MEAN_ANOMALY": 293.7121, "EPHEMERIS_TYPE": 0, "CLASSIFICATION_TYPE": "U", "NORAD_CAT_ID": 34833, "ELEMENT_SET_NO": 999, "REV_AT_EPOCH": 87573, "BSTAR": 0.0011259064, "MEAN_MOTION_DOT": 4.607e-05, "MEAN_MOTION_DDOT": 0}, "tle": {"line1": "1 34833U 97051MH  25336.96915590  .00004607  00000+0  11259-2 0  9992", "line2": "2 34833  86.3939  55.2036 0021524 128.6325 293.7121 14.52273941875736"}}, "geometry": {"type": "Point", "coordinates": [55.10338291388061, 2.566362001046674]}}, {"type": "Feature", "properties": {"norad_id": 34870, "name": "IRIDIUM 33 DEB", "group": "iridium-33-debris", "lat": -84.77502876798846, "lon": -176.83513510351824, "alt_km": 642.0280981972164, "timestamp": "2025-12-03T13:52:09.951628+00:00", "meta": {"OBJECT_NAME": "IRIDIUM 33 DEB", "OBJECT_ID": "1997-051MQ", "EPOCH": "2025-12-01T05:36:37.151712", "MEAN_MOTION": 14.76055324, "ECCENTRICITY": 0.0014764, "INCLINATION": 86.3102, "RA_OF_ASC_NODE": 319.3536, "ARG_OF_PERICENTER": 227.1347, "MEAN_ANOMALY": 190.7112, "EPHEMERIS_TYPE": 0, "CLASSIFICATION_TYPE": "U", "NORAD_CAT_ID": 34870, "ELEMENT_SET_NO": 999, "REV_AT_EPOCH": 88741, "BSTAR": 0.0019021, "MEAN_MOTION_DOT": 0.00013168, "MEAN_MOTION_DDOT": 0}, "tle": {"line1": "1 34870U 97051MQ  25335.23376333  .00013168  00000+0  19021-2 0  9995", "line2": "2 34870  86.3102 319.3536 0014764 227.1347 190.7112 14.76055324887418"}}, "geometry": {"type": "Point", "coordinates": [-176.83513510351824, -84.77502876798846]}}, {"type": "Feature", "properties": {"norad_id": 34896, "name": "IRIDIUM 33 DEB", "group": "iridium-33-debris", "lat": 78.58135884456703, "lon": -10.668074818907925, "alt_km": 682.7442604033122, "timestamp": "2025-12-03T13:52:09.951638+00:00", "meta": {"OBJECT_NAME": "IRIDIUM 33 DEB", "OBJECT_ID": "1997-051MY", "EPOCH": "2025-12-02T06:27:15.824160", "MEAN_MOTION": 14.66099888, "ECCENTRICITY": 0.0023761, "INCLINATION": 86.3285, "RA_OF_ASC_NODE": 331.3819, "ARG_OF_PERICENTER": 253.426, "MEAN_ANOMALY": 121.6385, "EPHEMERIS_TYPE": 0, "CLASSIFICATION_TYPE": "U", "NORAD_CAT_ID": 34896, "ELEMENT_SET_NO": 999, "REV_AT_EPOCH": 87466, "BSTAR": 0.0012182, "MEAN_MOTION_DOT": 6.738e-05, "MEAN_MOTION_DDOT": 0}, "tle": {"line1": "1 34896U 97051MY  25336.26893315  .00006738  00000+0  12182-2 0  9997", "line2": "2 34896  86.3285 331.3819 0023761 253.4260 121.6385 14.66099888874669"}}, "geometry": {"type": "Point", "coordinates": [-10.668074818907925, 78.58135884456703]}}, {"type": "Feature", "properties": {"norad_id": 34926, "name": "IRIDIUM 33 DEB", "group": "iridium-33-debris", "lat": -24.0257084193293, "lon": -165.75249744999243, "alt_km": 746.1331486065301, "timestamp": "2025-12-03T13:52:09.951649+00:00", "meta": {"OBJECT_NAME": "IRIDIUM 33 DEB", "OBJECT_ID": "1997-051NF", "EPOCH": "2025-12-02T20:58:36.078816", "MEAN_MOTION": 14.53691359, "ECCENTRICITY": 0.00769886, "INCLINATION": 86.1332, "RA_OF_ASC_NODE": 12.8456, "ARG_OF_PERICENTER": 326.4034, "MEAN_ANOMALY": 157.1189, "EPHEMERIS_TYPE": 0, "CLASSIFICATION_TYPE": "U", "NORAD_CAT_ID": 34926, "ELEMENT_SET_NO": 999, "REV_AT_EPOCH": 86313, "BSTAR": 0.0065509461, "MEAN_MOTION_DOT": 0.00028633, "MEAN_MOTION_DDOT": 0}, "tle": {"line1": "1 34926U 97051NF  25336.87402869  .00028633  00000+0  65509-2 0  9997", "line2": "2 34926  86.1332  12.8456 0076988 326.4034 157.1189 14.53691359863134"}}, "geometry": {"type": "Point", "coordinates": [-165.75249744999243, -24.0257084193293]}}, {"type": "Feature", "properties": {"norad_id": 34985, "name": "IRIDIUM 33 DEB", "group": "iridium-33-debris", "lat": 8.726372413896172, "lon": 61.345391375120364, "alt_km": 760.3774577793374, "timestamp": "2025-12-03T13:52:09.951659+00:00", "meta": {"OBJECT_NAME": "IRIDIUM 33 DEB", "OBJECT_ID": "1997-051NR", "EPOCH": "2025-12-03T05:45:23.488416", "MEAN_MOTION": 14.41938778, "ECCENTRICITY": 0.0019898, "INCLINATION": 86.3698, "RA_OF_ASC_NODE": 60.9312, "ARG_OF_PERICENTER": 252.9312, "MEAN_ANOMALY": 162.0944, "EPHEMERIS_TYPE": 0, "CLASSIFICATION_TYPE": "U", "NORAD_CAT_ID": 34985, "ELEMENT_SET_NO": 999, "REV_AT_EPOCH": 87038, "BSTAR": 0.0010646074, "MEAN_MOTION_DOT": 3.513e-05, "MEAN_MOTION_DDOT": 0}, "tle": {"line1": "1 34985U 97051NR  25337.23985519  .00003513  00000+0  10646-2 0  9993", "line2": "2 34985  86.3698  60.9312 0019898 252.9312 162.0944 14.41938778870385"}}, "geometry": {"type": "Point", "coordinates": [61.345391375120364, 8.726372413896172]}}, {"type": "Feature", "properties": {"norad_id": 35051, "name": "IRIDIUM 33 DEB", "group": "iridium-33-debris", "lat": 62.35503903271201, "lon": -174.19107699794705, "alt_km": 720.3010501225717, "timestamp": "2025-12-03T13:52:09.951669+00:00", "meta": {"OBJECT_NAME": "IRIDIUM 33 DEB", "OBJECT_ID": "1997-051NX", "EPOCH": "2025-12-02T20:44:20.358528", "MEAN_MOTION": 14.47524123, "ECCENTRICITY": 0.00104766, "INCLINATION": 86.3255, "RA_OF_ASC_NODE": 13.167, "ARG_OF_PERICENTER": 117.6322, "MEAN_ANOMALY": 242.5946, "EPHEMERIS_TYPE": 0, "CLASSIFICATION_TYPE": "U", "NORAD_CAT_ID": 35051, "ELEMENT_SET_NO": 999, "REV_AT_EPOCH": 86853, "BSTAR": 0.00083073982, "MEAN_MOTION_DOT": 3.075e-05, "MEAN_MOTION_DDOT": 0}, "tle": {"line1": "1 35051U 97051NX  25336.86412452  .00003075  00000+0  83074-3 0  9996", "line2": "2 35051  86.3255  13.1670 0010476 117.6322 242.5946 14.47524123868538"}}, "geometry": {"type": "Point", "coordinates": [-174.19107699794705, 62.35503903271201]}}, {"type": "Feature", "properties": {"norad_id": 35052, "name": "IRIDIUM 33 DEB", "group": "iridium-33-debris", "lat": -25.828994762167433, "lon": -153.81678186389306, "alt_km": 770.1783131338243, "timestamp": "2025-12-03T13:52:09.951679+00:00", "meta": {"OBJECT_NAME": "IRIDIUM 33 DEB", "OBJECT_ID": "1997-051NY", "EPOCH": "2025-12-03T02:54:00.517248", "MEAN_MOTION": 14.38473669, "ECCENTRICITY": 0.00135536, "INCLINATION": 86.3318, "RA_OF_ASC_NODE": 24.5996, "ARG_OF_PERICENTER": 111.8455, "MEAN_ANOMALY": 248.4187, "EPHEMERIS_TYPE": 0, "CLASSIFICATION_TYPE": "U", "NORAD_CAT_ID": 35052, "ELEMENT_SET_NO": 999, "REV_AT_EPOCH": 87137, "BSTAR": 0.00025735935, "MEAN_MOTION_DOT": 8.06e-06, "MEAN_MOTION_DDOT": 0}, "tle": {"line1": "1 35052U 97051NY  25337.12083932  .00000806  00000+0  25736-3 0  9994", "line2": "2 35052  86.3318  24.5996 0013553 111.8455 248.4187 14.38473669871374"}}, "geometry": {"type": "Point", "coordinates": [-153.81678186389306, -25.828994762167433]}}, {"type": "Feature", "properties": {"norad_id": 35080, "name": "IRIDIUM 33 DEB", "group": "iridium-33-debris", "lat": -75.30980220300428, "lon": 42.089149964076675, "alt_km": 610.8011869910433, "timestamp": "2025-12-03T13:52:09.951689+00:00", "meta": {"OBJECT_NAME": "IRIDIUM 33 DEB", "OBJECT_ID": "1997-051PF", "EPOCH": "2025-12-03T04:30:09.217152", "MEAN_MOTION": 14.84042089, "ECCENTRICITY": 0.00639322, "INCLINATION": 86.2067, "RA_OF_ASC_NODE": 56.9348, "ARG_OF_PERICENTER": 212.1182, "MEAN_ANOMALY": 147.6141, "EPHEMERIS_TYPE": 0, "CLASSIFICATION_TYPE": "U", "NORAD_CAT_ID": 35080, "ELEMENT_SET_NO": 999, "REV_AT_EPOCH": 69546, "BSTAR": 0.011299497, "MEAN_MOTION_DOT": 0.00098836, "MEAN_MOTION_DDOT": 0}, "tle": {"line1": "1 35080U 97051PF  25337.18760668  .00098836  00000+0  11299-1 0  9996", "line2": "2 35080  86.2067  56.9348 0063932 212.1182 147.6141 14.84042089695466"}}, "geometry": {"type": "Point", "coordinates": [42.089149964076675, -75.30980220300428]}}, {"type": "Feature", "properties": {"norad_id": 35297, "name": "IRIDIUM 33 DEB", "group": "iridium-33-debris", "lat": -73.65702604379656, "lon": -100.88391098663956, "alt_km": 748.2528292331308, "timestamp": "2025-12-03T13:52:09.951700+00:00", "meta": {"OBJECT_NAME": "IRIDIUM 33 DEB", "OBJECT_ID": "1997-051PM", "EPOCH": "2025-11-28T13:02:32.385696", "MEAN_MOTION": 14.4505178, "ECCENTRICITY": 0.00162447, "INCLINATION": 86.3859, "RA_OF_ASC_NODE": 68.817, "ARG_OF_PERICENTER": 185.2069, "MEAN_ANOMALY": 174.8967, "EPHEMERIS_TYPE": 0, "CLASSIFICATION_TYPE": "U", "NORAD_CAT_ID": 35297, "ELEMENT_SET_NO": 999, "REV_AT_EPOCH": 70221, "BSTAR": 0.00072341306, "MEAN_MOTION_DOT": 2.549e-05, "MEAN_MOTION_DDOT": 0}, "tle": {"line1": "1 35297U 97051PM  25332.54343039  .00002549  00000+0  72341-3 0  9993", "line2": "2 35297  86.3859  68.8170 0016244 185.2069 174.8967 14.45051780702214"}}, "geometry": {"type": "Point", "coordinates": [-100.88391098663956, -73.65702604379656]}}, {"type": "Feature", "properties": {"norad_id": 35299, "name": "IRIDIUM 33 DEB", "group": "iridium-33-debris", "lat": -31.96650762662733, "lon": 34.853153936521785, "alt_km": 802.1409665946048, "timestamp": "2025-12-03T13:52:09.951710+00:00", "meta": {"OBJECT_NAME": "IRIDIUM 33 DEB", "OBJECT_ID": "1997-051PP", "EPOCH": "2025-12-03T04:09:01.499328", "MEAN_MOTION": 14.4078031, "ECCENTRICITY": 0.0058614, "INCLINATION": 86.2893, "RA_OF_ASC_NODE": 37.3504, "ARG_OF_PERICENTER": 132.8527, "MEAN_ANOMALY": 256.2919, "EPHEMERIS_TYPE": 0, "CLASSIFICATION_TYPE": "U", "NORAD_CAT_ID": 35299, "ELEMENT_SET_NO": 999, "REV_AT_EPOCH": 86193, "BSTAR": 0.0010780004, "MEAN_MOTION_DOT": 3.539e-05, "MEAN_MOTION_DDOT": 0}, "tle": {"line1": "1 35299U 97051PP  25337.17293402  .00003539  00000+0  10780-2 0  9995", "line2": "2 35299  86.2893  37.3504 0058614 132.8527 256.2919 14.40780310861939"}}, "geometry": {"type": "Point", "coordinates": [34.853153936521785, -31.96650762662733]}}]}